{
"type": "FeatureCollection",
"name": "PREDIKSI_SHORELINE_2035",
"crs": { "type": "name", "properties": { "name": "urn:ogc:def:crs:OGC:1.3:CRS84" } },
"features": [
{ "type": "Feature", "properties": { "Id": 0 }, "geometry": { "type": "MultiLineString", "coordinates": [ [ [ 109.095978306772892, -6.836349076070306 ], [ 109.097233096721183, -6.83771406974616 ], [ 109.098547743529807, -6.838992701257665 ], [ 109.100051952559099, -6.839997810382677 ], [ 109.101282575378519, -6.8404916854375 ], [ 109.1030718104969, -6.840838297020623 ], [ 109.105028124255838, -6.841397387246781 ], [ 109.10681235226069, -6.841848722419436 ], [ 109.108773399760054, -6.841917354424585 ], [ 109.110280388116507, -6.842968758145202 ], [ 109.111899616493801, -6.843777239786141 ], [ 109.113416196493674, -6.844361248821884 ], [ 109.115069055155487, -6.84510454702083 ], [ 109.116710634616439, -6.84587756390085 ], [ 109.118315691802906, -6.846746777934395 ], [ 109.119906505054288, -6.847653518510444 ], [ 109.12123694407191, -6.848174622374241 ], [ 109.123032647221123, -6.848397674129235 ], [ 109.1248366690252, -6.848562578967765 ], [ 109.126759553801719, -6.847896310476353 ], [ 109.128343706446842, -6.848150320313745 ], [ 109.13001996186388, -6.848950836112132 ], [ 109.13182990692944, -6.848927793157261 ], [ 109.133633927355717, -6.849230353714653 ], [ 109.135456808260571, -6.848496520401253 ], [ 109.136238698972178, -6.848230814467926 ], [ 109.137362751974536, -6.846217952321719 ], [ 109.140663708628239, -6.846978956232378 ], [ 109.142473617735661, -6.847312913807859 ], [ 109.144277989893695, -6.847401274236542 ], [ 109.146091070788003, -6.847368250614887 ], [ 109.147836160175473, -6.847363347201354 ], [ 109.149319812907336, -6.84729147367011 ], [ 109.151126630051536, -6.847248158280332 ], [ 109.152960614625101, -6.847215736453083 ], [ 109.154725848614305, -6.846771907215857 ], [ 109.155861719715631, -6.846478668234896 ], [ 109.157290374038681, -6.845528704316712 ], [ 109.158677142927601, -6.844232854841905 ], [ 109.162922385282229, -6.845344861694028 ], [ 109.164320663957071, -6.84649761899483 ], [ 109.165674169684465, -6.847438630187419 ], [ 109.16700680330986, -6.848724807107975 ], [ 109.16854353228922, -6.849679263701994 ], [ 109.170116622233721, -6.850574628375347 ], [ 109.171763260489016, -6.851475721020506 ] ] ] } }
]
}
